{
    "links": {
        "self": "http://www.neowsapp.com/rest/v1/neo/3776008?api_key=iIulBulltgU6a56xZRHN4H3l9WmuAYTsLGpBGhQ2"
    },
    "id": "3776008",
    "neo_reference_id": "3776008",
    "name": "(2017 MX2)",
    "designation": "2017 MX2",
    "nasa_jpl_url": "http://ssd.jpl.nasa.gov/sbdb.cgi?sstr=3776008",
    "absolute_magnitude_h": 22.6,
    "estimated_diameter": {
        "kilometers": {
            "estimated_diameter_min": 0.0802703167,
            "estimated_diameter_max": 0.1794898848
        },
        "meters": {
            "estimated_diameter_min": 80.2703167283,
            "estimated_diameter_max": 179.4898847799
        },
        "miles": {
            "estimated_diameter_min": 0.049877647,
            "estimated_diameter_max": 0.1115298092
        },
        "feet": {
            "estimated_diameter_min": 263.3540659348,
            "estimated_diameter_max": 588.8775935812
        }
    },
    "is_potentially_hazardous_asteroid": false,
    "close_approach_data": [
        {
            "close_approach_date": "2017-07-07",
            "close_approach_date_full": "2017-Jul-07 01:42",
            "epoch_date_close_approach": 1499391720000,
            "relative_velocity": {
                "kilometers_per_second": "5.5275649181",
                "kilometers_per_hour": "19899.233705199",
                "miles_per_hour": "12364.6099653221"
            },
            "miss_distance": {
                "astronomical": "0.2485704895",
                "lunar": "96.6939204155",
                "kilometers": "37185615.774057365",
                "miles": "23106070.199287037"
            },
            "orbiting_body": "Earth"
        }
    ],
    "orbital_data": {
        "orbit_id": "12",
        "orbit_determination_date": "2017-10-31 06:19:00",
        "first_observation_date": "2017-06-21",
        "last_observation_date": "2017-08-18",
        "data_arc_in_days": 58,
        "observations_used": 49,
        "orbit_uncertainty": "6",
        "minimum_orbit_intersection": ".234482",
        "jupiter_tisserand_invariant": "3.543",
        "epoch_osculation": "2459000.5",
        "eccentricity": ".4267638366300565",
        "semi_major_axis": "2.180238851790255",
        "inclination": "8.971212436263698",
        "ascending_node_longitude": "276.5473988154032",
        "orbital_period": "1175.857080400527",
        "perihelion_distance": "1.249791754630337",
        "perihelion_argument": "8.846221548484177",
        "aphelion_distance": "3.110685948950174",
        "perihelion_time": "2459113.945966636942",
        "mean_anomaly": "325.2674218065789",
        "mean_motion": ".3061596566458356",
        "equinox": "J2000",
        "orbit_class": {
            "orbit_class_type": "AMO",
            "orbit_class_description": "Near-Earth asteroid orbits similar to that of 1221 Amor",
            "orbit_class_range": "1.017 AU < q (perihelion) < 1.3 AU"
        }
    },
    "is_sentry_object": false
}